{"type": "FeatureCollection", "features": [ {"type": "Feature", "properties": {"norad_id": 67001, "name": "2025-292J", "group": "last-30-days", "lat": 30.37705583892367, "lon": 54.970936704670606, "alt_km": 557.5347418675847, "timestamp": "2025-12-12T22:42:11.308782+00:00", "meta": {"OBJECT_NAME": "2025-292J", "OBJECT_ID": "2025-292J", "EPOCH": "2025-12-11T21:01:26.583168", "MEAN_MOTION": 15.04279228, "ECCENTRICITY": 0.00145483, "INCLINATION": 97.6573, "RA_OF_ASC_NODE": 58.4343, "ARG_OF_PERICENTER": 271.9613, "MEAN_ANOMALY": 87.9946, "EPHEMERIS_TYPE": 0, "CLASSIFICATION_TYPE": "U", "NORAD_CAT_ID": 67001, "ELEMENT_SET_NO": 999, "REV_AT_EPOCH": 26, "BSTAR": 0.00057837428, "MEAN_MOTION_DOT": 8.011e-05, "MEAN_MOTION_DDOT": 0}, "tle": {"line1": "1 67001U 25292J   25345.87600212  .00008011  00000+0  57837-3 0  9991", "line2": "2 67001  97.6573  58.4343 0014548 271.9613  87.9946 15.04279228   262"}}, "geometry": {"type": "Point", "coordinates": [54.970936704670606, 30.37705583892367]}}, {"type": "Feature", "properties": {"norad_id": 67002, "name": "ZK-1A R/B", "group": "last-30-days", "lat": 14.756081243665555, "lon": -118.20975720415503, "alt_km": 544.3157184010697, "timestamp": "2025-12-12T22:42:11.308796+00:00", "meta": {"OBJECT_NAME": "ZK-1A R/B", "OBJECT_ID": "2025-292K", "EPOCH": "2025-12-12T06:33:04.234752", "MEAN_MOTION": 15.54311312, "ECCENTRICITY": 0.02213711, "INCLINATION": 97.7243, "RA_OF_ASC_NODE": 59.0149, "ARG_OF_PERICENTER": 7.7028, "MEAN_ANOMALY": 352.7532, "EPHEMERIS_TYPE": 0, "CLASSIFICATION_TYPE": "U", "NORAD_CAT_ID": 67002, "ELEMENT_SET_NO": 999, "REV_AT_EPOCH": 32, "BSTAR": 0.00099680677, "MEAN_MOTION_DOT": 0.00200567, "MEAN_MOTION_DDOT": 1.2454685e-05}, "tle": {"line1": "1 67002U 25292K   25346.27296568  .00200567  12455-4  99681-3 0  9997", "line2": "2 67002  97.7243  59.0149 0221371   7.7028 352.7532 15.54311312   325"}}, "geometry": {"type": "Point", "coordinates": [-118.20975720415503, 14.756081243665555]}}, {"type": "Feature", "properties": {"norad_id": 67059, "name": "HULIANWANG DIGUI 16A", "group": "last-30-days", "lat": 10.819835478391964, "lon": -177.85546060983822, "alt_km": 803.6230136699387, "timestamp": "2025-12-12T22:42:11.308806+00:00", "meta": {"OBJECT_NAME": "HULIANWANG DIGUI 16A", "OBJECT_ID": "2025-295A", "EPOCH": "2025-12-12T05:06:27.347328", "MEAN_MOTION": 14.25879966, "ECCENTRICITY": 0.00136284, "INCLINATION": 50.0035, "RA_OF_ASC_NODE": 14.4753, "ARG_OF_PERICENTER": 247.7813, "MEAN_ANOMALY": 112.1656, "EPHEMERIS_TYPE": 0, "CLASSIFICATION_TYPE": "U", "NORAD_CAT_ID": 67059, "ELEMENT_SET_NO": 999, "REV_AT_EPOCH": 4, "BSTAR": 3.434713e-06, "MEAN_MOTION_DOT": -1.52e-06, "MEAN_MOTION_DDOT": 0}, "tle": {"line1": "1 67059U 25295A   25346.21281652 -.00000152  00000+0  34347-5 0  9991", "line2": "2 67059  50.0035  14.4753 0013628 247.7813 112.1656 14.25879966    41"}}, "geometry": {"type": "Point", "coordinates": [-177.85546060983822, 10.819835478391964]}}, {"type": "Feature", "properties": {"norad_id": 67060, "name": "HULIANWANG DIGUI 16B", "group": "last-30-days", "lat": 10.44312808810672, "lon": -177.52330811051976, "alt_km": 802.6133497564588, "timestamp": "2025-12-12T22:42:11.308816+00:00", "meta": {"OBJECT_NAME": "HULIANWANG DIGUI 16B", "OBJECT_ID": "2025-295B", "EPOCH": "2025-12-12T05:06:25.468992", "MEAN_MOTION": 14.26022254, "ECCENTRICITY": 0.0013423, "INCLINATION": 50.0012, "RA_OF_ASC_NODE": 14.4776, "ARG_OF_PERICENTER": 244.6732, "MEAN_ANOMALY": 115.2792, "EPHEMERIS_TYPE": 0, "CLASSIFICATION_TYPE": "U", "NORAD_CAT_ID": 67060, "ELEMENT_SET_NO": 999, "REV_AT_EPOCH": 4, "BSTAR": 4.398892e-06, "MEAN_MOTION_DOT": -1.5e-06, "MEAN_MOTION_DDOT": 0}, "tle": {"line1": "1 67060U 25295B   25346.21279478 -.00000150  00000+0  43989-5 0  9996", "line2": "2 67060  50.0012  14.4776 0013423 244.6732 115.2792 14.26022254    48"}}, "geometry": {"type": "Point", "coordinates": [-177.52330811051976, 10.44312808810672]}}, {"type": "Feature", "properties": {"norad_id": 67062, "name": "HULIANWANG DIGUI 16D", "group": "last-30-days", "lat": 10.601267842617638, "lon": -177.6648254148174, "alt_km": 804.1026021894959, "timestamp": "2025-12-12T22:42:11.308826+00:00", "meta": {"OBJECT_NAME": "HULIANWANG DIGUI 16D", "OBJECT_ID": "2025-295D", "EPOCH": "2025-12-12T05:06:24.477120", "MEAN_MOTION": 14.25916921, "ECCENTRICITY": 0.00124974, "INCLINATION": 50.0052, "RA_OF_ASC_NODE": 14.4731, "ARG_OF_PERICENTER": 251.2247, "MEAN_ANOMALY": 108.7311, "EPHEMERIS_TYPE": 0, "CLASSIFICATION_TYPE": "U", "NORAD_CAT_ID": 67062, "ELEMENT_SET_NO": 999, "REV_AT_EPOCH": 4, "BSTAR": 3.753899e-06, "MEAN_MOTION_DOT": -1.51e-06, "MEAN_MOTION_DDOT": 0}, "tle": {"line1": "1 67062U 25295D   25346.21278330 -.00000151  00000+0  37539-5 0  9999", "line2": "2 67062  50.0052  14.4731 0012497 251.2247 108.7311 14.25916921    46"}}, "geometry": {"type": "Point", "coordinates": [-177.6648254148174, 10.601267842617638]}}, {"type": "Feature", "properties": {"norad_id": 67064, "name": "HULIANWANG DIGUI 16F", "group": "last-30-days", "lat": 8.456804618725268, "lon": -175.81455466720988, "alt_km": 799.692301763037, "timestamp": "2025-12-12T22:42:11.308836+00:00", "meta": {"OBJECT_NAME": "HULIANWANG DIGUI 16F", "OBJECT_ID": "2025-295F", "EPOCH": "2025-12-12T05:06:22.414752", "MEAN_MOTION": 14.26957674, "ECCENTRICITY": 0.00149026, "INCLINATION": 50.0027, "RA_OF_ASC_NODE": 14.4596, "ARG_OF_PERICENTER": 247.8107, "MEAN_ANOMALY": 112.1227, "EPHEMERIS_TYPE": 0, "CLASSIFICATION_TYPE": "U", "NORAD_CAT_ID": 67064, "ELEMENT_SET_NO": 999, "REV_AT_EPOCH": 4, "BSTAR": 2.6251967e-05, "MEAN_MOTION_DOT": -9.6e-07, "MEAN_MOTION_DDOT": 0}, "tle": {"line1": "1 67064U 25295F   25346.21275943 -.00000096  00000+0  26252-4 0  9995", "line2": "2 67064  50.0027  14.4596 0014902 247.8107 112.1227 14.26957674    44"}}, "geometry": {"type": "Point", "coordinates": [-175.81455466720988, 8.456804618725268]}}, {"type": "Feature", "properties": {"norad_id": 67066, "name": "HULIANWANG DIGUI 16H", "group": "last-30-days", "lat": 9.356269102022445, "lon": -176.59141784910383, "alt_km": 801.9899741217787, "timestamp": "2025-12-12T22:42:11.308847+00:00", "meta": {"OBJECT_NAME": "HULIANWANG DIGUI 16H", "OBJECT_ID": "2025-295H", "EPOCH": "2025-12-12T05:06:20.088000", "MEAN_MOTION": 14.26429655, "ECCENTRICITY": 0.00114905, "INCLINATION": 50.0029, "RA_OF_ASC_NODE": 14.4606, "ARG_OF_PERICENTER": 248.6611, "MEAN_ANOMALY": 111.3077, "EPHEMERIS_TYPE": 0, "CLASSIFICATION_TYPE": "U", "NORAD_CAT_ID": 67066, "ELEMENT_SET_NO": 999, "REV_AT_EPOCH": 4, "BSTAR": 2.4353642e-05, "MEAN_MOTION_DOT": -1.01e-06, "MEAN_MOTION_DDOT": 0}, "tle": {"line1": "1 67066U 25295H   25346.21273250 -.00000101  00000+0  24354-4 0  9994", "line2": "2 67066  50.0029  14.4606 0011490 248.6611 111.3077 14.26429655    45"}}, "geometry": {"type": "Point", "coordinates": [-176.59141784910383, 9.356269102022445]}}, {"type": "Feature", "properties": {"norad_id": 67067, "name": "HULIANWANG DIGUI 16J", "group": "last-30-days", "lat": 9.410107398281848, "lon": -176.6287084548541, "alt_km": 802.8757395244456, "timestamp": "2025-12-12T22:42:11.308859+00:00", "meta": {"OBJECT_NAME": "HULIANWANG DIGUI 16J", "OBJECT_ID": "2025-295J", "EPOCH": "2025-12-12T05:06:18.555264", "MEAN_MOTION": 14.26361638, "ECCENTRICITY": 0.00104901, "INCLINATION": 50.0044, "RA_OF_ASC_NODE": 14.4694, "ARG_OF_PERICENTER": 253.0387, "MEAN_ANOMALY": 106.9378, "EPHEMERIS_TYPE": 0, "CLASSIFICATION_TYPE": "U", "NORAD_CAT_ID": 67067, "ELEMENT_SET_NO": 999, "REV_AT_EPOCH": 4, "BSTAR": 6.475965e-06, "MEAN_MOTION_DOT": -1.45e-06, "MEAN_MOTION_DDOT": 0}, "tle": {"line1": "1 67067U 25295J   25346.21271476 -.00000145  00000+0  64760-5 0  9997", "line2": "2 67067  50.0044  14.4694 0010490 253.0387 106.9378 14.26361638    49"}}, "geometry": {"type": "Point", "coordinates": [-176.6287084548541, 9.410107398281848]}}]}